{"type": "FeatureCollection", "features": [ {"type": "Feature", "properties": {"norad_id": 66800, "name": "STARLINK-35996", "group": "last-30-days", "lat": -37.95336012509276, "lon": 42.47296211664197, "alt_km": 417.31865283073057, "timestamp": "2025-12-27T04:40:44.218892+00:00", "meta": {"OBJECT_NAME": "STARLINK-35996", "OBJECT_ID": "2025-278K", "EPOCH": "2025-12-26T22:00:01.999584", "MEAN_MOTION": 15.50561526, "ECCENTRICITY": 0.00015971, "INCLINATION": 43.0002, "RA_OF_ASC_NODE": 167.2748, "ARG_OF_PERICENTER": 274.2894, "MEAN_ANOMALY": 214.9709, "EPHEMERIS_TYPE": 0, "CLASSIFICATION_TYPE": "U", "NORAD_CAT_ID": 66800, "ELEMENT_SET_NO": 999, "REV_AT_EPOCH": 502, "BSTAR": -7.6187121e-05, "MEAN_MOTION_DOT": -4.806e-05, "MEAN_MOTION_DDOT": 0}, "tle": {"line1": "1 66800U 25278K   25360.91668981 -.00004806  00000+0 -76187-4 0  9990", "line2": "2 66800  43.0002 167.2748 0001597 274.2894 214.9709 15.50561526  5029"}}, "geometry": {"type": "Point", "coordinates": [42.47296211664197, -37.95336012509276]}}, {"type": "Feature", "properties": {"norad_id": 66801, "name": "STARLINK-36080", "group": "last-30-days", "lat": -38.488413860239724, "lon": 44.20906401601389, "alt_km": 430.30202971230483, "timestamp": "2025-12-27T04:40:44.218902+00:00", "meta": {"OBJECT_NAME": "STARLINK-36080", "OBJECT_ID": "2025-278L", "EPOCH": "2025-12-26T22:00:01.999584", "MEAN_MOTION": 15.4729818, "ECCENTRICITY": 0.00015064, "INCLINATION": 43.0003, "RA_OF_ASC_NODE": 167.2611, "ARG_OF_PERICENTER": 277.869, "MEAN_ANOMALY": 216.7531, "EPHEMERIS_TYPE": 0, "CLASSIFICATION_TYPE": "U", "NORAD_CAT_ID": 66801, "ELEMENT_SET_NO": 999, "REV_AT_EPOCH": 523, "BSTAR": -0.042787387, "MEAN_MOTION_DOT": -0.01996276, "MEAN_MOTION_DDOT": 0}, "tle": {"line1": "1 66801U 25278L   25360.91668981 -.01996276  00000+0 -42787-1 0  9999", "line2": "2 66801  43.0003 167.2611 0001506 277.8690 216.7531 15.47298180  5238"}}, "geometry": {"type": "Point", "coordinates": [44.20906401601389, -38.488413860239724]}}, {"type": "Feature", "properties": {"norad_id": 66802, "name": "STARLINK-35604", "group": "last-30-days", "lat": -37.2175181427629, "lon": 40.24485641331638, "alt_km": 417.2228330589751, "timestamp": "2025-12-27T04:40:44.218912+00:00", "meta": {"OBJECT_NAME": "STARLINK-35604", "OBJECT_ID": "2025-278M", "EPOCH": "2025-12-26T22:00:01.999584", "MEAN_MOTION": 15.50554652, "ECCENTRICITY": 0.00016964, "INCLINATION": 43.0003, "RA_OF_ASC_NODE": 167.2792, "ARG_OF_PERICENTER": 271.9691, "MEAN_ANOMALY": 215.3765, "EPHEMERIS_TYPE": 0, "CLASSIFICATION_TYPE": "U", "NORAD_CAT_ID": 66802, "ELEMENT_SET_NO": 999, "REV_AT_EPOCH": 523, "BSTAR": 0.00013107628, "MEAN_MOTION_DOT": 7.349e-05, "MEAN_MOTION_DDOT": 0}, "tle": {"line1": "1 66802U 25278M   25360.91668981  .00007349  00000+0  13108-3 0  9998", "line2": "2 66802  43.0003 167.2792 0001696 271.9691 215.3765 15.50554652  5232"}}, "geometry": {"type": "Point", "coordinates": [40.24485641331638, -37.2175181427629]}}, {"type": "Feature", "properties": {"norad_id": 66803, "name": "STARLINK-35565", "group": "last-30-days", "lat": 6.526624394892241, "lon": -21.22514363617283, "alt_km": 443.36539955924945, "timestamp": "2025-12-27T04:40:44.218925+00:00", "meta": {"OBJECT_NAME": "STARLINK-35565", "OBJECT_ID": "2025-278N", "EPOCH": "2025-12-26T22:00:01.999584", "MEAN_MOTION": 15.40635882, "ECCENTRICITY": 0.00018395, "INCLINATION": 43.0002, "RA_OF_ASC_NODE": 167.4308, "ARG_OF_PERICENTER": 278.5544, "MEAN_ANOMALY": 146.5736, "EPHEMERIS_TYPE": 0, "CLASSIFICATION_TYPE": "U", "NORAD_CAT_ID": 66803, "ELEMENT_SET_NO": 999, "REV_AT_EPOCH": 532, "BSTAR": 0.0026469911, "MEAN_MOTION_DOT": 0.00111663, "MEAN_MOTION_DDOT": 0}, "tle": {"line1": "1 66803U 25278N   25360.91668981  .00111663  00000+0  26470-2 0  9999", "line2": "2 66803  43.0002 167.4308 0001839 278.5544 146.5736 15.40635882  5323"}}, "geometry": {"type": "Point", "coordinates": [-21.22514363617283, 6.526624394892241]}}, {"type": "Feature", "properties": {"norad_id": 66804, "name": "STARLINK-36038", "group": "last-30-days", "lat": -1.9369382458450852, "lon": -12.123580761164098, "alt_km": 444.21319391919315, "timestamp": "2025-12-27T04:40:44.218935+00:00", "meta": {"OBJECT_NAME": "STARLINK-36038", "OBJECT_ID": "2025-278P", "EPOCH": "2025-12-26T22:00:01.999584", "MEAN_MOTION": 15.40629771, "ECCENTRICITY": 0.00018501, "INCLINATION": 42.9999, "RA_OF_ASC_NODE": 167.4004, "ARG_OF_PERICENTER": 276.0899, "MEAN_ANOMALY": 161.4832, "EPHEMERIS_TYPE": 0, "CLASSIFICATION_TYPE": "U", "NORAD_CAT_ID": 66804, "ELEMENT_SET_NO": 999, "REV_AT_EPOCH": 523, "BSTAR": 0.0025830194, "MEAN_MOTION_DOT": 0.00108895, "MEAN_MOTION_DDOT": 0}, "tle": {"line1": "1 66804U 25278P   25360.91668981  .00108895  00000+0  25830-2 0  9992", "line2": "2 66804  42.9999 167.4004 0001850 276.0899 161.4832 15.40629771  5232"}}, "geometry": {"type": "Point", "coordinates": [-12.123580761164098, -1.9369382458450852]}}, {"type": "Feature", "properties": {"norad_id": 66805, "name": "STARLINK-36049", "group": "last-30-days", "lat": -18.501608721003937, "lon": 6.779224695860717, "alt_km": 445.2124051163337, "timestamp": "2025-12-27T04:40:44.218947+00:00", "meta": {"OBJECT_NAME": "STARLINK-36049", "OBJECT_ID": "2025-278Q", "EPOCH": "2025-12-26T22:00:01.999584", "MEAN_MOTION": 15.4084658, "ECCENTRICITY": 0.00020125, "INCLINATION": 43.0001, "RA_OF_ASC_NODE": 167.3386, "ARG_OF_PERICENTER": 268.3234, "MEAN_ANOMALY": 194.0417, "EPHEMERIS_TYPE": 0, "CLASSIFICATION_TYPE": "U", "NORAD_CAT_ID": 66805, "ELEMENT_SET_NO": 999, "REV_AT_EPOCH": 523, "BSTAR": -0.0063212546, "MEAN_MOTION_DOT": -0.00256937, "MEAN_MOTION_DDOT": 0}, "tle": {"line1": "1 66805U 25278Q   25360.91668981 -.00256937  00000+0 -63213-2 0  9993", "line2": "2 66805  43.0001 167.3386 0002012 268.3234 194.0417 15.40846580  5239"}}, "geometry": {"type": "Point", "coordinates": [6.779224695860717, -18.501608721003937]}}, {"type": "Feature", "properties": {"norad_id": 66806, "name": "STARLINK-36069", "group": "last-30-days", "lat": -39.59371665057911, "lon": 48.201953782581434, "alt_km": 417.6547827445738, "timestamp": "2025-12-27T04:40:44.218960+00:00", "meta": {"OBJECT_NAME": "STARLINK-36069", "OBJECT_ID": "2025-278R", "EPOCH": "2025-12-26T19:52:35.099328", "MEAN_MOTION": 15.50172736, "ECCENTRICITY": 0.00035497, "INCLINATION": 42.9997, "RA_OF_ASC_NODE": 167.7747, "ARG_OF_PERICENTER": 258.4501, "MEAN_ANOMALY": 101.5961, "EPHEMERIS_TYPE": 0, "CLASSIFICATION_TYPE": "U", "NORAD_CAT_ID": 66806, "ELEMENT_SET_NO": 999, "REV_AT_EPOCH": 404, "BSTAR": -0.0046932242, "MEAN_MOTION_DOT": -0.00262901, "MEAN_MOTION_DDOT": 0}, "tle": {"line1": "1 66806U 25278R   25360.82818402 -.00262901  00000+0 -46932-2 0  9996", "line2": "2 66806  42.9997 167.7747 0003549 258.4501 101.5961 15.50172736  4041"}}, "geometry": {"type": "Point", "coordinates": [48.201953782581434, -39.59371665057911]}}, {"type": "Feature", "properties": {"norad_id": 66807, "name": "STARLINK-36000", "group": "last-30-days", "lat": -41.39745251375017, "lon": 56.70444588043954, "alt_km": 417.3379159797605, "timestamp": "2025-12-27T04:40:44.218970+00:00", "meta": {"OBJECT_NAME": "STARLINK-36000", "OBJECT_ID": "2025-278S", "EPOCH": "2025-12-26T22:00:01.999584", "MEAN_MOTION": 15.5054668, "ECCENTRICITY": 0.00015466, "INCLINATION": 43.0001, "RA_OF_ASC_NODE": 167.246, "ARG_OF_PERICENTER": 270.9731, "MEAN_ANOMALY": 229.7846, "EPHEMERIS_TYPE": 0, "CLASSIFICATION_TYPE": "U", "NORAD_CAT_ID": 66807, "ELEMENT_SET_NO": 999, "REV_AT_EPOCH": 529, "BSTAR": 0.0010120881, "MEAN_MOTION_DOT": 0.00059416, "MEAN_MOTION_DDOT": 0}, "tle": {"line1": "1 66807U 25278S   25360.91668981  .00059416  00000+0  10121-2 0  9996", "line2": "2 66807  43.0001 167.2460 0001546 270.9731 229.7846 15.50546680  5292"}}, "geometry": {"type": "Point", "coordinates": [56.70444588043954, -41.39745251375017]}}, {"type": "Feature", "properties": {"norad_id": 66808, "name": "STARLINK-36071", "group": "last-30-days", "lat": -41.793595176700826, "lon": 59.20478264288065, "alt_km": 417.38621364808387, "timestamp": "2025-12-27T04:40:44.218980+00:00", "meta": {"OBJECT_NAME": "STARLINK-36071", "OBJECT_ID": "2025-278T", "EPOCH": "2025-12-26T22:00:01.999584", "MEAN_MOTION": 15.50556903, "ECCENTRICITY": 0.00015675, "INCLINATION": 43.0002, "RA_OF_ASC_NODE": 167.2413, "ARG_OF_PERICENTER": 271.2533, "MEAN_ANOMALY": 231.4268, "EPHEMERIS_TYPE": 0, "CLASSIFICATION_TYPE": "U", "NORAD_CAT_ID": 66808, "ELEMENT_SET_NO": 999, "REV_AT_EPOCH": 523, "BSTAR": 7.1097287e-05, "MEAN_MOTION_DOT": 3.828e-05, "MEAN_MOTION_DDOT": 0}, "tle": {"line1": "1 66808U 25278T   25360.91668981  .00003828  00000+0  71097-4 0  9994", "line2": "2 66808  43.0002 167.2413 0001567 271.2533 231.4268 15.50556903  5230"}}, "geometry": {"type": "Point", "coordinates": [59.20478264288065, -41.793595176700826]}}, {"type": "Feature", "properties": {"norad_id": 66809, "name": "STARLINK-35979", "group": "last-30-days", "lat": -42.646456164681965, "lon": 66.86059094838735, "alt_km": 417.2727713326649, "timestamp": "2025-12-27T04:40:44.218989+00:00", "meta": {"OBJECT_NAME": "STARLINK-35979", "OBJECT_ID": "2025-278U", "EPOCH": "2025-12-26T22:00:01.999584", "MEAN_MOTION": 15.50560828, "ECCENTRICITY": 0.00017544, "INCLINATION": 43.0003, "RA_OF_ASC_NODE": 167.2256, "ARG_OF_PERICENTER": 272.7327, "MEAN_ANOMALY": 235.6957, "EPHEMERIS_TYPE": 0, "CLASSIFICATION_TYPE": "U", "NORAD_CAT_ID": 66809, "ELEMENT_SET_NO": 999, "REV_AT_EPOCH": 523, "BSTAR": 1.151582e-06, "MEAN_MOTION_DOT": -2.74e-06, "MEAN_MOTION_DDOT": 0}, "tle": {"line1": "1 66809U 25278U   25360.91668981 -.00000274  00000+0  11516-5 0  9999", "line2": "2 66809  43.0003 167.2256 0001754 272.7327 235.6957 15.50560828  5234"}}, "geometry": {"type": "Point", "coordinates": [66.86059094838735, -42.646456164681965]}}]}